{
  "type": "FeatureCollection",
  "features": [
    {
      "type": "Feature",
      "properties": {
        "norad_id": 24876,
        "name": "GPS BIIR-2  (PRN 13)",
        "group": "gps-ops",
        "lat": -18.454824806463336,
        "lon": 92.80286348954631,
        "alt_km": 20135.3429324174,
        "timestamp": "2025-12-12T16:50:33.403565+00:00",
        "meta_object_name": "GPS BIIR-2  (PRN 13)",
        "meta_object_id": "1997-035A",
        "meta_epoch": "2025-12-10T17:43:14.126880",
        "meta_mean_motion": 2.00563589,
        "meta_eccentricity": 0.0096757,
        "meta_inclination": 55.8943,
        "meta_ra_of_asc_node": 105.9471,
        "meta_arg_of_pericenter": 57.0036,
        "meta_mean_anomaly": 303.9018,
        "meta_ephemeris_type": 0,
        "meta_classification_type": "U",
        "meta_norad_cat_id": 24876,
        "meta_element_set_no": 999,
        "meta_rev_at_epoch": 20817,
        "meta_bstar": 0,
        "meta_mean_motion_dot": 2.2e-07,
        "meta_mean_motion_ddot": 0,
        "tle_line1": "1 24876U 97035A   25344.73835795  .00000022  00000+0  00000+0 0  9998",
        "tle_line2": "2 24876  55.8943 105.9471 0096757  57.0036 303.9018  2.00563589208175"
      },
      "geometry": {
        "type": "Point",
        "coordinates": [
          92.80286348954631,
          -18.454824806463336
        ]
      }
    },
    {
      "type": "Feature",
      "properties": {
        "norad_id": 26360,
        "name": "GPS BIIR-4  (PRN 20)",
        "group": "gps-ops",
        "lat": 50.55793190990597,
        "lon": 85.04248468489796,
        "alt_km": 20278.120218943754,
        "timestamp": "2025-12-12T16:50:33.403592+00:00",
        "meta_object_name": "GPS BIIR-4  (PRN 20)",
        "meta_object_id": "2000-025A",
        "meta_epoch": "2025-12-11T15:38:07.687104",
        "meta_mean_motion": 2.0056778,
        "meta_eccentricity": 0.00388662,
        "meta_inclination": 55.0445,
        "meta_ra_of_asc_node": 26.8818,
        "meta_arg_of_pericenter": 241.8871,
        "meta_mean_anomaly": 150.2644,
        "meta_ephemeris_type": 0,
        "meta_classification_type": "U",
        "meta_norad_cat_id": 26360,
        "meta_element_set_no": 999,
        "meta_rev_at_epoch": 18751,
        "meta_bstar": 0,
        "meta_mean_motion_dot": -1e-06,
        "meta_mean_motion_ddot": 0,
        "tle_line1": "1 26360U 00025A   25345.65147786 -.00000100  00000+0  00000+0 0  9997",
        "tle_line2": "2 26360  55.0445  26.8818 0038866 241.8871 150.2644  2.00567780187516"
      },
      "geometry": {
        "type": "Point",
        "coordinates": [
          85.04248468489796,
          50.55793190990597
        ]
      }
    },
    {
      "type": "Feature",
      "properties": {
        "norad_id": 26407,
        "name": "GPS BIIR-5  (PRN 22)",
        "group": "gps-ops",
        "lat": -54.88858959016042,
        "lon": 131.39815261580404,
        "alt_km": 19904.53342381304,
        "timestamp": "2025-12-12T16:50:33.403608+00:00",
        "meta_object_name": "GPS BIIR-5  (PRN 22)",
        "meta_object_id": "2000-040A",
        "meta_epoch": "2025-12-11T13:24:36.235008",
        "meta_mean_motion": 2.00567937,
        "meta_eccentricity": 0.01260768,
        "meta_inclination": 54.891,
        "meta_ra_of_asc_node": 222.6159,
        "meta_arg_of_pericenter": 301.789,
        "meta_mean_anomaly": 223.0098,
        "meta_ephemeris_type": 0,
        "meta_classification_type": "U",
        "meta_norad_cat_id": 26407,
        "meta_element_set_no": 999,
        "meta_rev_at_epoch": 18618,
        "meta_bstar": 0,
        "meta_mean_motion_dot": 3e-08,
        "meta_mean_motion_ddot": 0,
        "tle_line1": "1 26407U 00040A   25345.55875272  .00000003  00000+0  00000+0 0  9994",
        "tle_line2": "2 26407  54.8910 222.6159 0126076 301.7890 223.0098  2.00567937186182"
      },
      "geometry": {
        "type": "Point",
        "coordinates": [
          131.39815261580404,
          -54.88858959016042
        ]
      }
    },
    {
      "type": "Feature",
      "properties": {
        "norad_id": 27663,
        "name": "GPS BIIR-8  (PRN 16)",
        "group": "gps-ops",
        "lat": 35.912857058063004,
        "lon": -107.0500229388038,
        "alt_km": 19787.361315280454,
        "timestamp": "2025-12-12T16:50:33.403622+00:00",
        "meta_object_name": "GPS BIIR-8  (PRN 16)",
        "meta_object_id": "2003-005A",
        "meta_epoch": "2025-12-11T15:45:05.050944",
        "meta_mean_motion": 2.00570963,
        "meta_eccentricity": 0.01474213,
        "meta_inclination": 54.9236,
        "meta_ra_of_asc_node": 222.4214,
        "meta_arg_of_pericenter": 51.7853,
        "meta_mean_anomaly": 319.3276,
        "meta_ephemeris_type": 0,
        "meta_classification_type": "U",
        "meta_norad_cat_id": 27663,
        "meta_element_set_no": 999,
        "meta_rev_at_epoch": 16755,
        "meta_bstar": 0,
        "meta_mean_motion_dot": 4e-08,
        "meta_mean_motion_ddot": 0,
        "tle_line1": "1 27663U 03005A   25345.65630846  .00000004  00000+0  00000+0 0  9991",
        "tle_line2": "2 27663  54.9236 222.4214 0147421  51.7853 319.3276  2.00570963167557"
      },
      "geometry": {
        "type": "Point",
        "coordinates": [
          -107.0500229388038,
          35.912857058063004
        ]
      }
    },
    {
      "type": "Feature",
      "properties": {
        "norad_id": 28190,
        "name": "GPS BIIR-11 (PRN 19)",
        "group": "gps-ops",
        "lat": -20.697341042609114,
        "lon": 118.54576728865692,
        "alt_km": 19956.997572928336,
        "timestamp": "2025-12-12T16:50:33.403634+00:00",
        "meta_object_name": "GPS BIIR-11 (PRN 19)",
        "meta_object_id": "2004-009A",
        "meta_epoch": "2025-12-11T22:20:18.324960",
        "meta_mean_motion": 2.00560799,
        "meta_eccentricity": 0.0108335,
        "meta_inclination": 54.9863,
        "meta_ra_of_asc_node": 283.2515,
        "meta_arg_of_pericenter": 167.6362,
        "meta_mean_anomaly": 200.4215,
        "meta_ephemeris_type": 0,
        "meta_classification_type": "U",
        "meta_norad_cat_id": 28190,
        "meta_element_set_no": 999,
        "meta_rev_at_epoch": 15919,
        "meta_bstar": 0,
        "meta_mean_motion_dot": -7.6e-07,
        "meta_mean_motion_ddot": 0,
        "tle_line1": "1 28190U 04009A   25345.93076765 -.00000076  00000+0  00000+0 0  9997",
        "tle_line2": "2 28190  54.9863 283.2515 0108335 167.6362 200.4215  2.00560799159191"
      },
      "geometry": {
        "type": "Point",
        "coordinates": [
          118.54576728865692,
          -20.697341042609114
        ]
      }
    },
    {
      "type": "Feature",
      "properties": {
        "norad_id": 28474,
        "name": "GPS BIIR-13 (PRN 02)",
        "group": "gps-ops",
        "lat": -54.70056837748966,
        "lon": -128.90548647647455,
        "alt_km": 19866.29158959913,
        "timestamp": "2025-12-12T16:50:33.403646+00:00",
        "meta_object_name": "GPS BIIR-13 (PRN 02)",
        "meta_object_id": "2004-045A",
        "meta_epoch": "2025-12-11T20:09:21.883104",
        "meta_mean_motion": 2.00569463,
        "meta_eccentricity": 0.0170746,
        "meta_inclination": 55.2411,
        "meta_ra_of_asc_node": 332.4419,
        "meta_arg_of_pericenter": 309.2085,
        "meta_mean_anomaly": 53.2722,
        "meta_ephemeris_type": 0,
        "meta_classification_type": "U",
        "meta_norad_cat_id": 28474,
        "meta_element_set_no": 999,
        "meta_rev_at_epoch": 15467,
        "meta_bstar": 0,
        "meta_mean_motion_dot": -8.7e-07,
        "meta_mean_motion_ddot": 0,
        "tle_line1": "1 28474U 04045A   25345.83983661 -.00000087  00000+0  00000+0 0  9995",
        "tle_line2": "2 28474  55.2411 332.4419 0170746 309.2085  53.2722  2.00569463154672"
      },
      "geometry": {
        "type": "Point",
        "coordinates": [
          -128.90548647647455,
          -54.70056837748966
        ]
      }
    },
    {
      "type": "Feature",
      "properties": {
        "norad_id": 28874,
        "name": "GPS BIIRM-1 (PRN 17)",
        "group": "gps-ops",
        "lat": -33.52084709712762,
        "lon": 128.26980688075233,
        "alt_km": 20068.347147270844,
        "timestamp": "2025-12-12T16:50:33.403658+00:00",
        "meta_object_name": "GPS BIIRM-1 (PRN 17)",
        "meta_object_id": "2005-038A",
        "meta_epoch": "2025-12-10T14:00:21.521088",
        "meta_mean_motion": 2.00578486,
        "meta_eccentricity": 0.0131701,
        "meta_inclination": 55.0338,
        "meta_ra_of_asc_node": 280.7877,
        "meta_arg_of_pericenter": 293.4518,
        "meta_mean_anomaly": 200.7371,
        "meta_ephemeris_type": 0,
        "meta_classification_type": "U",
        "meta_norad_cat_id": 28874,
        "meta_element_set_no": 999,
        "meta_rev_at_epoch": 14805,
        "meta_bstar": 0,
        "meta_mean_motion_dot": -6.4e-07,
        "meta_mean_motion_ddot": 0,
        "tle_line1": "1 28874U 05038A   25344.58358242 -.00000064  00000+0  00000+0 0  9999",
        "tle_line2": "2 28874  55.0338 280.7877 0131701 293.4518 200.7371  2.00578486148057"
      },
      "geometry": {
        "type": "Point",
        "coordinates": [
          128.26980688075233,
          -33.52084709712762
        ]
      }
    }
  ]
}